{"type": "FeatureCollection", "features": [ {"type": "Feature", "properties": {"norad_id": 58654, "name": "BEIDOU-3 M28 (C50)", "group": "beidou", "lat": 51.81947513563268, "lon": 128.91461917864592, "alt_km": 21528.917748955988, "timestamp": "2025-12-18T10:51:26.071869+00:00", "meta": {"OBJECT_NAME": "BEIDOU-3 M28 (C50)", "OBJECT_ID": "2023-207A", "EPOCH": "2025-12-17T06:29:44.947968", "MEAN_MOTION": 1.86229839, "ECCENTRICITY": 0.00025948, "INCLINATION": 55.5883, "RA_OF_ASC_NODE": 68.448, "ARG_OF_PERICENTER": 271.6936, "MEAN_ANOMALY": 88.3013, "EPHEMERIS_TYPE": 0, "CLASSIFICATION_TYPE": "U", "NORAD_CAT_ID": 58654, "ELEMENT_SET_NO": 999, "REV_AT_EPOCH": 1345, "BSTAR": 0, "MEAN_MOTION_DOT": -7.5e-07, "MEAN_MOTION_DDOT": 0}, "tle": {"line1": "1 58654U 23207A   25351.27065912 -.00000075  00000+0  00000+0 0  9991", "line2": "2 58654  55.5883  68.4480 0002594 271.6936  88.3013  1.86229839 13452"}}, "geometry": {"type": "Point", "coordinates": [128.91461917864592, 51.81947513563268]}}, {"type": "Feature", "properties": {"norad_id": 58655, "name": "BEIDOU-3 M26 (C48)", "group": "beidou", "lat": -22.753317424841594, "lon": -94.91317301347017, "alt_km": 21523.892906442547, "timestamp": "2025-12-18T10:51:26.071881+00:00", "meta": {"OBJECT_NAME": "BEIDOU-3 M26 (C48)", "OBJECT_ID": "2023-207B", "EPOCH": "2025-12-17T14:31:30.906048", "MEAN_MOTION": 1.86231342, "ECCENTRICITY": 0.00040018, "INCLINATION": 55.5906, "RA_OF_ASC_NODE": 68.4229, "ARG_OF_PERICENTER": 257.9174, "MEAN_ANOMALY": 102.0639, "EPHEMERIS_TYPE": 0, "CLASSIFICATION_TYPE": "U", "NORAD_CAT_ID": 58655, "ELEMENT_SET_NO": 999, "REV_AT_EPOCH": 1344, "BSTAR": 0, "MEAN_MOTION_DOT": -7.2e-07, "MEAN_MOTION_DDOT": 0}, "tle": {"line1": "1 58655U 23207B   25351.60521882 -.00000072  00000+0  00000+0 0  9999", "line2": "2 58655  55.5906  68.4229 0004001 257.9174 102.0639  1.86231342 13445"}}, "geometry": {"type": "Point", "coordinates": [-94.91317301347017, -22.753317424841594]}}, {"type": "Feature", "properties": {"norad_id": 61186, "name": "BEIDOU-3 M25 (C47)", "group": "beidou", "lat": -27.969884486007235, "lon": -73.6380313097099, "alt_km": 21518.048348277665, "timestamp": "2025-12-18T10:51:26.071893+00:00", "meta": {"OBJECT_NAME": "BEIDOU-3 M25 (C47)", "OBJECT_ID": "2024-168B", "EPOCH": "2025-12-17T10:14:26.230272", "MEAN_MOTION": 1.86230291, "ECCENTRICITY": 0.00054394, "INCLINATION": 54.6378, "RA_OF_ASC_NODE": 308.5577, "ARG_OF_PERICENTER": 298.8835, "MEAN_ANOMALY": 58.2936, "EPHEMERIS_TYPE": 0, "CLASSIFICATION_TYPE": "U", "NORAD_CAT_ID": 61186, "ELEMENT_SET_NO": 999, "REV_AT_EPOCH": 839, "BSTAR": 0, "MEAN_MOTION_DOT": -9.1e-07, "MEAN_MOTION_DDOT": 0}, "tle": {"line1": "1 61186U 24168B   25351.42669248 -.00000091  00000+0  00000+0 0  9999", "line2": "2 61186  54.6378 308.5577 0005439 298.8835  58.2936  1.86230291  8391"}}, "geometry": {"type": "Point", "coordinates": [-73.6380313097099, -27.969884486007235]}}, {"type": "Feature", "properties": {"norad_id": 61187, "name": "BEIDOU-3 M27 (C49)", "group": "beidou", "lat": 53.46081366022167, "lon": 55.20122801604997, "alt_km": 21525.44012651944, "timestamp": "2025-12-18T10:51:26.071905+00:00", "meta": {"OBJECT_NAME": "BEIDOU-3 M27 (C49)", "OBJECT_ID": "2024-168C", "EPOCH": "2025-12-17T09:44:22.026336", "MEAN_MOTION": 1.86230445, "ECCENTRICITY": 0.00024936, "INCLINATION": 54.6333, "RA_OF_ASC_NODE": 308.542, "ARG_OF_PERICENTER": 338.9889, "MEAN_ANOMALY": 139.133, "EPHEMERIS_TYPE": 0, "CLASSIFICATION_TYPE": "U", "NORAD_CAT_ID": 61187, "ELEMENT_SET_NO": 999, "REV_AT_EPOCH": 587, "BSTAR": 0, "MEAN_MOTION_DOT": -9.1e-07, "MEAN_MOTION_DDOT": 0}, "tle": {"line1": "1 61187U 24168C   25351.40581049 -.00000091  00000+0  00000+0 0  9990", "line2": "2 61187  54.6333 308.5420 0002493 338.9889 139.1330  1.86230445  5870"}}, "geometry": {"type": "Point", "coordinates": [55.20122801604997, 53.46081366022167]}}]}